[{"OBJECT_NAME":"STARLINK-32150","OBJECT_ID":"2024-132S","EPOCH":"2026-03-09T22:12:11.467872","MEAN_MOTION":15.30201294,"ECCENTRICITY":0.00016475,"INCLINATION":53.1614,"RA_OF_ASC_NODE":51.5373,"ARG_OF_PERICENTER":99.3052,"MEAN_ANOMALY":260.8135,"EPHEMERIS_TYPE":0,"CLASSIFICATION_TYPE":"U","NORAD_CAT_ID":60294,"ELEMENT_SET_NO":999,"REV_AT_EPOCH":9159,"BSTAR":0.00028082235,"MEAN_MOTION_DOT":7.967e-5,"MEAN_MOTION_DDOT":0},{"OBJECT_NAME":"KUIPER-00266","OBJECT_ID":"2026-030AB","EPOCH":"2026-03-08T21:54:37.698048","MEAN_MOTION":15.30874235,"ECCENTRICITY":0.0022313,"INCLINATION":51.8807,"RA_OF_ASC_NODE":223.5904,"ARG_OF_PERICENTER":72.5291,"MEAN_ANOMALY":287.8129,"EPHEMERIS_TYPE":0,"CLASSIFICATION_TYPE":"U","NORAD_CAT_ID":67789,"ELEMENT_SET_NO":999,"REV_AT_EPOCH":496,"BSTAR":0.00098219753,"MEAN_MOTION_DOT":0.00029701,"MEAN_MOTION_DDOT":0}]
